NORAD_CAT_ID,OBJECT_NAME,OBJECT_TYPE,EPOCH,MEAN_MOTION,ECCENTRICITY,INCLINATION,RA_OF_ASC_NODE,ARG_OF_PERICENTER,MEAN_ANOMALY,BSTAR,MEAN_MOTION_DOT,MEAN_MOTION_DDOT,TLE_LINE0,TLE_LINE1,TLE_LINE2,SEMIMAJOR_AXIS,PERIOD,APOGEE,PERIGEE,DECAYED
50190.0,STARLINK-3268,PAYLOAD,2022-12-05 02:30:37,15.08839683,0.0003393,53.2151,183.8742,44.6128,315.5136,0.00011037,1.468e-05,0.0,0 STARLINK-3268,1 50190U 21125AL  22339.10459762  .00001468  00000-0  11037-3 0  9993,2 50190  53.2151 183.8742 0003393  44.6128 315.5136 15.08839683 56512,6917.880999999999,95.438,542.094,537.399,0.0
50190.0,STARLINK-3268,PAYLOAD,2022-12-05 07:16:46,15.08841871,0.0003393,53.2151,182.9821,44.9397,315.1869,0.00014185,1.97e-05,0.0,0 STARLINK-3268,1 50190U 21125AL  22339.30331688  .00001970  00000-0  14185-3 0  9996,2 50190  53.2151 182.9821 0003393  44.9397 315.1869 15.08841871 57029,6917.875,95.437,542.087,537.3919999999998,0.0
50190.0,STARLINK-3268,PAYLOAD,2022-12-05 19:59:51,15.08844866,0.0003422,53.2152,180.6035,45.4994,314.6278,0.00027724,4.127e-05,0.0,0 STARLINK-3268,1 50190U 21125AL  22339.83323634  .00004127  00000-0  27724-3 0  9996,2 50190  53.2152 180.6035 0003422  45.4994 314.6278 15.08844866 57108,6917.866,95.437,542.0980000000002,537.363,0.0
50190.0,STARLINK-3268,PAYLOAD,2022-12-06 07:07:33,15.08852461,0.0003474,53.2148,178.52200000000005,46.27,313.858,0.00034521,5.212e-05,0.0,0 STARLINK-3268,1 50190U 21125AL  22340.29691302  .00005212  00000-0  34521-3 0  9997,2 50190  53.2148 178.5220 0003474  46.2700 313.8580 15.08852461 56696,6917.842,95.437,542.111,537.304,0.0
50190.0,STARLINK-3268,PAYLOAD,2022-12-06 19:50:38,15.08840393,0.0003457,53.2151,176.1425,48.1757,311.9529,5.5121e-05,5.89e-06,0.0,0 STARLINK-3268,1 50190U 21125AL  22340.82683712  .00000589  00000-0  55121-4 0  9994,2 50190  53.2151 176.1425 0003457  48.1757 311.9529 15.08840393 57251,6917.879,95.438,542.136,537.3530000000002,0.0
50190.0,STARLINK-3268,PAYLOAD,2022-12-06 23:01:25,15.08839698,0.000347,53.2151,175.5478,48.361,311.7679,3.2255e-05,2.25e-06,0.0,0 STARLINK-3268,1 50190U 21125AL  22340.95931715  .00000225  00000-0  32255-4 0  9997,2 50190  53.2151 175.5478 0003470  48.3610 311.7679 15.08839698 56795,6917.880999999999,95.438,542.1469999999998,537.346,0.0
50190.0,STARLINK-3268,PAYLOAD,2022-12-07 19:41:25,15.08848506,0.0003488,53.2164,171.6826,50.8059,309.3242,6.9192e-05,8.13e-06,0.0,0 STARLINK-3268,1 50190U 21125AL  22341.82043149  .00000813  00000-0  69192-4 0  9992,2 50190  53.2164 171.6826 0003488  50.8059 309.3242 15.08848506 57403,6917.854,95.437,542.132,537.306,0.0
50190.0,STARLINK-3268,PAYLOAD,2022-12-08 13:10:40,15.08836221,0.000332,53.2162,168.4109,48.82899999999999,311.2988,-5.8384e-05,-1.218e-05,0.0,0 STARLINK-3268,1 50190U 21125AL  22342.54907923 -.00001218  00000-0 -58384-4 0  9994,2 50190  53.2162 168.4109 0003320  48.8290 311.2988 15.08836221 57510,6917.892,95.438,542.054,537.46,0.0
50190.0,STARLINK-3268,PAYLOAD,2022-12-08 19:32:13,15.08831324,0.0003359,53.2162,167.2218,47.124,313.0034,4.0216e-05,3.51e-06,0.0,0 STARLINK-3268,1 50190U 21125AL  22342.81404147  .00000351  00000-0  40216-4 0  9994,2 50190  53.2162 167.2218 0003359  47.1240 313.0034 15.08831324 57079,6917.906999999997,95.438,542.096,537.448,0.0
50190.0,STARLINK-3268,PAYLOAD,2022-12-09 11:26:02,15.08846757,0.0003525,53.2166,164.2497,30.988000000000003,329.1319,0.00076705,0.00011943,0.0,0 STARLINK-3268,1 50190U 21125AL  22343.47642201  .00011943  00000-0  76705-3 0  9992,2 50190  53.2166 164.2497 0003525  30.9880 329.1319 15.08846757 57658,6917.86,95.437,542.163,537.286,0.0
50190.0,STARLINK-3268,PAYLOAD,2022-12-09 19:23:00,15.088279,0.0003181,53.217,162.7642,54.9117,305.2174,-1.8994e-05,-5.91e-06,0.0,0 STARLINK-3268,1 50190U 21125AL  22343.80764629 -.00000591  00000-0 -18994-4 0  9994,2 50190  53.2170 162.7642 0003181  54.9117 305.2174 15.08827900 57221,6917.917,95.438,541.9830000000002,537.582,0.0
50190.0,STARLINK-3268,PAYLOAD,2022-12-10 11:16:44,15.08966808,0.0002041,53.2173,159.79,25.0046,335.1045,-0.00019425,-3.39e-05,0.0,0 STARLINK-3268,1 50190U 21125AL  22344.46995623 -.00003390  00000-0 -19425-3 0  9996,2 50190  53.2173 159.7900 0002041  25.0046 335.1045 15.08966808 57322,6917.493,95.43,540.77,537.946,0.0
50190.0,STARLINK-3268,PAYLOAD,2022-12-10 19:13:46,15.08837307,0.0003472,53.2161,158.3005,53.3043,306.8268,0.00024143,3.556e-05,0.0,0 STARLINK-3268,1 50190U 21125AL  22344.80123740  .00003556  00000-0  24143-3 0  9992,2 50190  53.2161 158.3005 0003472  53.3043 306.8268 15.08837307 57851,6917.889,95.438,542.156,537.352,0.0
50190.0,STARLINK-3268,PAYLOAD,2022-12-10 20:49:09,15.08843986,0.0003487,53.2163,158.003,52.6406,307.4903,0.00019329,2.789e-05,0.0,0 STARLINK-3268,1 50190U 21125AL  22344.86747430  .00002789  00000-0  19329-3 0  9993,2 50190  53.2163 158.0030 0003487  52.6406 307.4903 15.08843986 57380,6917.868,95.437,542.145,537.321,0.0
50190.0,STARLINK-3268,PAYLOAD,2022-12-11 11:07:37,15.0885072,0.0002319,53.2147,155.3267,39.8169,320.2993,-0.00018088,-3.167e-05,0.0,0 STARLINK-3268,1 50190U 21125AL  22345.46362558 -.00003167  00000-0 -18088-3 0  9998,2 50190  53.2147 155.3267 0002319  39.8169 320.2993 15.08850720 57959,6917.848000000001,95.437,541.317,538.1080000000002,0.0
50190.0,STARLINK-3268,PAYLOAD,2022-12-11 19:04:33,15.08837794,0.0003339,53.2149,153.8389,56.2647,303.8663,-7.0088e-06,-4e-06,0.0,0 STARLINK-3268,1 50190U 21125AL  22345.79483716 -.00000400  00000-0 -70088-5 0  9991,2 50190  53.2149 153.8389 0003339  56.2647 303.8663 15.08837794 57526,6917.887,95.438,542.062,537.442,0.0
50190.0,STARLINK-3268,PAYLOAD,2022-12-12 18:55:20,15.08847534,0.000322,53.216,149.378,59.3308,300.8002,4.9011e-05,4.92e-06,0.0,0 STARLINK-3268,1 50190U 21125AL  22346.78843229  .00000492  00000-0  49011-4 0  9990,2 50190  53.2160 149.3780 0003220  59.3308 300.8002 15.08847534 58158,6917.857,95.437,541.95,537.495,0.0
50190.0,STARLINK-3268,PAYLOAD,2022-12-13 04:27:38,15.08851558,0.0003161,53.2161,147.5937,60.619,299.5118,9.0139e-05,1.147e-05,0.0,0 STARLINK-3268,1 50190U 21125AL  22347.18586680  .00001147  00000-0  90139-4 0  9995,2 50190  53.2161 147.5937 0003161  60.6190 299.5118 15.08851558 57737,6917.845,95.437,541.8969999999998,537.523,0.0
50190.0,STARLINK-3268,PAYLOAD,2022-12-13 20:21:31,15.08836391,0.0003488,53.2163,144.6214,59.8692,300.2646,6.9889e-05,8.24e-06,0.0,0 STARLINK-3268,1 50190U 21125AL  22347.84827768  .00000824  00000-0  69889-4 0  9992,2 50190  53.2163 144.6214 0003488  59.8692 300.2646 15.08836391 57839,6917.891,95.438,542.169,537.3430000000002,0.0
50190.0,STARLINK-3268,PAYLOAD,2022-12-14 10:39:58,15.0884612,0.0002944,53.2157,141.9459,60.273,299.8555,9.8036e-05,1.272e-05,0.0,0 STARLINK-3268,1 50190U 21125AL  22348.44442816  .00001272  00000-0  98036-4 0  9990,2 50190  53.2157 141.9459 0002944  60.2730 299.8555 15.08846120 57921,6917.861999999999,95.437,541.763,537.69,0.0
50190.0,STARLINK-3268,PAYLOAD,2022-12-14 17:01:31,15.08839991,0.0003068,53.2185,140.7564,51.4956,308.6311,-2.1021e-05,-6.23e-06,0.0,0 STARLINK-3268,1 50190U 21125AL  22348.70939594 -.00000623  00000-0 -21021-4 0  9994,2 50190  53.2185 140.7564 0003068  51.4956 308.6311 15.08839991 58441,6917.88,95.438,541.868,537.623,0.0
50190.0,STARLINK-3268,PAYLOAD,2022-12-15 13:41:33,15.08825509,0.0003306,53.2161,136.8907,57.2908,302.8402,-2.327e-06,-3.26e-06,0.0,0 STARLINK-3268,1 50190U 21125AL  22349.57052650 -.00000326  00000-0 -23270-5 0  9998,2 50190  53.2161 136.8907 0003306  57.2908 302.8402 15.08825509 58096,6917.925,95.438,542.077,537.503,0.0
50190.0,STARLINK-3268,PAYLOAD,2022-12-15 20:03:06,15.08829987,0.0003298,53.2163,135.7008,57.4598,302.6712,-3.0337e-05,-7.72e-06,0.0,0 STARLINK-3268,1 50190U 21125AL  22349.83548619 -.00000772  00000-0 -30337-4 0  9998,2 50190  53.2163 135.7008 0003298  57.4598 302.6712 15.08829987 58619,6917.911,95.438,542.058,537.494,0.0
50190.0,STARLINK-3268,PAYLOAD,2022-12-16 02:24:38,15.08833291,0.0003306,53.2165,134.5115,57.658,302.4731,-5.0577e-06,-3.69e-06,0.0,0 STARLINK-3268,1 50190U 21125AL  22350.10044436 -.00000369  00000-0 -50577-5 0  9999,2 50190  53.2165 134.5115 0003306  57.6580 302.4731 15.08833291 58173,6917.901,95.438,542.053,537.479,0.0
50190.0,STARLINK-3268,PAYLOAD,2022-12-16 10:21:33,15.08832309,0.0003174,53.2171,133.0242,55.5797,304.5495,9.5118e-05,1.225e-05,0.0,0 STARLINK-3268,1 50190U 21125AL  22350.43164272  .00001225  00000-0  95118-4 0  9995,2 50190  53.2171 133.0242 0003174  55.5797 304.5495 15.08832309 58703,6917.904,95.438,541.965,537.573,0.0
50190.0,STARLINK-3268,PAYLOAD,2022-12-16 19:53:52,15.08832921,0.0003234,53.2161,131.2411,53.8533,306.2758,0.00012245,1.66e-05,0.0,0 STARLINK-3268,1 50190U 21125AL  22350.82908494  .00001660  00000-0  12245-3 0  9992,2 50190  53.2161 131.2411 0003234  53.8533 306.2758 15.08832921 58763,6917.901999999999,95.438,542.004,537.53,0.0
50190.0,STARLINK-3268,PAYLOAD,2022-12-17 02:15:26,15.08809772,0.0003154,53.2162,130.0517,60.3748,299.7558,0.00035932,5.429999999999999e-05,0.0,0 STARLINK-3268,1 50190U 21125AL  22351.09405961  .00005430  00000-0  35932-3 0  9990,2 50190  53.2162 130.0517 0003154  60.3748 299.7558 15.08809772 58324,6917.973000000001,95.439,542.02,537.656,0.0
50190.0,STARLINK-3268,PAYLOAD,2022-12-17 10:12:21,15.08834649,0.0003207,53.2157,128.5641,56.137,303.9927,0.00019968,2.89e-05,0.0,0 STARLINK-3268,1 50190U 21125AL  22351.42524620  .00002890  00000-0  19968-3 0  9999,2 50190  53.2157 128.5641 0003207  56.1370 303.9927 15.08834649 58858,6917.897,95.438,541.98,537.543,0.0
50190.0,STARLINK-3268,PAYLOAD,2022-12-17 16:33:53,15.08845848,0.000323,53.2157,127.3748,56.6576,303.4725,0.00034244,5.167e-05,0.0,0 STARLINK-3268,1 50190U 21125AL  22351.69020316  .00005167  00000-0  34244-3 0  9995,2 50190  53.2157 127.3748 0003230  56.6576 303.4725 15.08845848 58418,6917.863,95.437,541.962,537.493,0.0
